{"type": "FeatureCollection", "features": [ {"type": "Feature", "properties": {"norad_id": 34141, "name": "COSMOS 2251 DEB", "group": "cosmos-2251-debris", "lat": 26.964288099013327, "lon": -156.22284706756557, "alt_km": 698.4639929669402, "timestamp": "2025-12-10T23:33:13.211933+00:00", "meta": {"OBJECT_NAME": "COSMOS 2251 DEB", "OBJECT_ID": "1993-036LN", "EPOCH": "2025-12-10T13:36:26.625312", "MEAN_MOTION": 14.49202231, "ECCENTRICITY": 0.00473502, "INCLINATION": 74.0111, "RA_OF_ASC_NODE": 32.9428, "ARG_OF_PERICENTER": 119.9342, "MEAN_ANOMALY": 30.2796, "EPHEMERIS_TYPE": 0, "CLASSIFICATION_TYPE": "U", "NORAD_CAT_ID": 34141, "ELEMENT_SET_NO": 999, "REV_AT_EPOCH": 87662, "BSTAR": 0.0023112907, "MEAN_MOTION_DOT": 8.913e-05, "MEAN_MOTION_DDOT": 0}, "tle": {"line1": "1 34141U 93036LN  25344.56697483  .00008913  00000+0  23113-2 0  9992", "line2": "2 34141  74.0111  32.9428 0047350 119.9342  30.2796 14.49202231876629"}}, "geometry": {"type": "Point", "coordinates": [-156.22284706756557, 26.964288099013327]}}, {"type": "Feature", "properties": {"norad_id": 34270, "name": "COSMOS 2251 DEB", "group": "cosmos-2251-debris", "lat": 6.2658765762982, "lon": -48.18014180632772, "alt_km": 682.2017401071553, "timestamp": "2025-12-10T23:33:13.211944+00:00", "meta": {"OBJECT_NAME": "COSMOS 2251 DEB", "OBJECT_ID": "1993-036LQ", "EPOCH": "2025-12-10T08:46:30.809568", "MEAN_MOTION": 14.65135093, "ECCENTRICITY": 0.00477721, "INCLINATION": 74.0117, "RA_OF_ASC_NODE": 311.2018, "ARG_OF_PERICENTER": 104.7003, "MEAN_ANOMALY": 255.9468, "EPHEMERIS_TYPE": 0, "CLASSIFICATION_TYPE": "U", "NORAD_CAT_ID": 34270, "ELEMENT_SET_NO": 999, "REV_AT_EPOCH": 89061, "BSTAR": 0.00098713078, "MEAN_MOTION_DOT": 5.368e-05, "MEAN_MOTION_DDOT": 0}, "tle": {"line1": "1 34270U 93036LQ  25344.36563437  .00005368  00000+0  98713-3 0  9994", "line2": "2 34270  74.0117 311.2018 0047772 104.7003 255.9468 14.65135093890616"}}, "geometry": {"type": "Point", "coordinates": [-48.18014180632772, 6.2658765762982]}}, {"type": "Feature", "properties": {"norad_id": 34271, "name": "COSMOS 2251 DEB", "group": "cosmos-2251-debris", "lat": -72.19131766512443, "lon": 139.61064900302242, "alt_km": 653.2339471240939, "timestamp": "2025-12-10T23:33:13.211953+00:00", "meta": {"OBJECT_NAME": "COSMOS 2251 DEB", "OBJECT_ID": "1993-036LR", "EPOCH": "2025-12-10T14:15:32.721408", "MEAN_MOTION": 14.70679048, "ECCENTRICITY": 0.00191124, "INCLINATION": 74.02, "RA_OF_ASC_NODE": 203.4962, "ARG_OF_PERICENTER": 257.9218, "MEAN_ANOMALY": 130.4018, "EPHEMERIS_TYPE": 0, "CLASSIFICATION_TYPE": "U", "NORAD_CAT_ID": 34271, "ELEMENT_SET_NO": 999, "REV_AT_EPOCH": 88203, "BSTAR": 0.0027956595, "MEAN_MOTION_DOT": 0.00017088, "MEAN_MOTION_DDOT": 0}, "tle": {"line1": "1 34271U 93036LR  25344.59412872  .00017088  00000+0  27957-2 0  9999", "line2": "2 34271  74.0200 203.4962 0019112 257.9218 130.4018 14.70679048882030"}}, "geometry": {"type": "Point", "coordinates": [139.61064900302242, -72.19131766512443]}}, {"type": "Feature", "properties": {"norad_id": 34273, "name": "COSMOS 2251 DEB", "group": "cosmos-2251-debris", "lat": -2.3058841680672235, "lon": 90.12913360966265, "alt_km": 700.064282534333, "timestamp": "2025-12-10T23:33:13.211962+00:00", "meta": {"OBJECT_NAME": "COSMOS 2251 DEB", "OBJECT_ID": "1993-036LT", "EPOCH": "2025-12-10T13:47:34.139616", "MEAN_MOTION": 14.61191918, "ECCENTRICITY": 0.00141934, "INCLINATION": 74.0358, "RA_OF_ASC_NODE": 91.5668, "ARG_OF_PERICENTER": 217.3233, "MEAN_ANOMALY": 161.7968, "EPHEMERIS_TYPE": 0, "CLASSIFICATION_TYPE": "U", "NORAD_CAT_ID": 34273, "ELEMENT_SET_NO": 999, "REV_AT_EPOCH": 88590, "BSTAR": 0.0017024682, "MEAN_MOTION_DOT": 8.379e-05, "MEAN_MOTION_DDOT": 0}, "tle": {"line1": "1 34273U 93036LT  25344.57470069  .00008379  00000+0  17025-2 0  9999", "line2": "2 34273  74.0358  91.5668 0014193 217.3233 161.7968 14.61191918885901"}}, "geometry": {"type": "Point", "coordinates": [90.12913360966265, -2.3058841680672235]}}, {"type": "Feature", "properties": {"norad_id": 34274, "name": "COSMOS 2251 DEB", "group": "cosmos-2251-debris", "lat": 53.89042064129173, "lon": 95.11168744222252, "alt_km": 687.5569755993647, "timestamp": "2025-12-10T23:33:13.211971+00:00", "meta": {"OBJECT_NAME": "COSMOS 2251 DEB", "OBJECT_ID": "1993-036LU", "EPOCH": "2025-12-10T08:50:55.330944", "MEAN_MOTION": 14.64735685, "ECCENTRICITY": 0.00221834, "INCLINATION": 74.0045, "RA_OF_ASC_NODE": 73.1357, "ARG_OF_PERICENTER": 223.4172, "MEAN_ANOMALY": 204.3809, "EPHEMERIS_TYPE": 0, "CLASSIFICATION_TYPE": "U", "NORAD_CAT_ID": 34274, "ELEMENT_SET_NO": 999, "REV_AT_EPOCH": 88641, "BSTAR": 0.0019233775, "MEAN_MOTION_DOT": 0.00010268, "MEAN_MOTION_DDOT": 0}, "tle": {"line1": "1 34274U 93036LU  25344.36869596  .00010268  00000+0  19234-2 0  9998", "line2": "2 34274  74.0045  73.1357 0022183 223.4172 204.3809 14.64735685886417"}}, "geometry": {"type": "Point", "coordinates": [95.11168744222252, 53.89042064129173]}}, {"type": "Feature", "properties": {"norad_id": 34276, "name": "COSMOS 2251 DEB", "group": "cosmos-2251-debris", "lat": 40.63458471639718, "lon": 102.89621587425088, "alt_km": 714.2846727363367, "timestamp": "2025-12-10T23:33:13.211980+00:00", "meta": {"OBJECT_NAME": "COSMOS 2251 DEB", "OBJECT_ID": "1993-036LW", "EPOCH": "2025-12-10T15:24:47.254176", "MEAN_MOTION": 14.57204202, "ECCENTRICITY": 0.0022638, "INCLINATION": 74.0234, "RA_OF_ASC_NODE": 89.3085, "ARG_OF_PERICENTER": 236.1833, "MEAN_ANOMALY": 187.8437, "EPHEMERIS_TYPE": 0, "CLASSIFICATION_TYPE": "U", "NORAD_CAT_ID": 34276, "ELEMENT_SET_NO": 999, "REV_AT_EPOCH": 88562, "BSTAR": 0.0013422716, "MEAN_MOTION_DOT": 6.059e-05, "MEAN_MOTION_DDOT": 0}, "tle": {"line1": "1 34276U 93036LW  25344.64221359  .00006059  00000+0  13423-2 0  9997", "line2": "2 34276  74.0234  89.3085 0022638 236.1833 187.8437 14.57204202885628"}}, "geometry": {"type": "Point", "coordinates": [102.89621587425088, 40.63458471639718]}}, {"type": "Feature", "properties": {"norad_id": 34297, "name": "COSMOS 2251 DEB", "group": "cosmos-2251-debris", "lat": -4.973578095708292, "lon": 108.88751049705114, "alt_km": 785.0577086359099, "timestamp": "2025-12-10T23:33:13.211990+00:00", "meta": {"OBJECT_NAME": "COSMOS 2251 DEB", "OBJECT_ID": "1993-036MT", "EPOCH": "2025-12-10T13:13:11.153856", "MEAN_MOTION": 14.36626254, "ECCENTRICITY": 0.00171994, "INCLINATION": 74.0485, "RA_OF_ASC_NODE": 288.2516, "ARG_OF_PERICENTER": 357.2857, "MEAN_ANOMALY": 121.8043, "EPHEMERIS_TYPE": 0, "CLASSIFICATION_TYPE": "U", "NORAD_CAT_ID": 34297, "ELEMENT_SET_NO": 999, "REV_AT_EPOCH": 88033, "BSTAR": 0.000252898, "MEAN_MOTION_DOT": 7.19e-06, "MEAN_MOTION_DDOT": 0}, "tle": {"line1": "1 34297U 93036MT  25344.55082354  .00000719  00000+0  25290-3 0  9993", "line2": "2 34297  74.0485 288.2516 0017199 357.2857 121.8043 14.36626254880331"}}, "geometry": {"type": "Point", "coordinates": [108.88751049705114, -4.973578095708292]}}, {"type": "Feature", "properties": {"norad_id": 34299, "name": "COSMOS 2251 DEB", "group": "cosmos-2251-debris", "lat": -53.43090687765067, "lon": -44.25388394401164, "alt_km": 372.56178986575014, "timestamp": "2025-12-10T23:33:13.211999+00:00", "meta": {"OBJECT_NAME": "COSMOS 2251 DEB", "OBJECT_ID": "1993-036MV", "EPOCH": "2025-12-10T10:01:18.436800", "MEAN_MOTION": 15.68507926, "ECCENTRICITY": 0.00212966, "INCLINATION": 73.978, "RA_OF_ASC_NODE": 339.8142, "ARG_OF_PERICENTER": 58.2723, "MEAN_ANOMALY": 302.0571, "EPHEMERIS_TYPE": 0, "CLASSIFICATION_TYPE": "U", "NORAD_CAT_ID": 34299, "ELEMENT_SET_NO": 999, "REV_AT_EPOCH": 88974, "BSTAR": 0.0074300809, "MEAN_MOTION_DOT": 0.00932202, "MEAN_MOTION_DDOT": 0}, "tle": {"line1": "1 34299U 93036MV  25344.41757450  .00932202  00000+0  74301-2 0  9993", "line2": "2 34299  73.9780 339.8142 0021296  58.2723 302.0571 15.68507926889743"}}, "geometry": {"type": "Point", "coordinates": [-44.25388394401164, -53.43090687765067]}}, {"type": "Feature", "properties": {"norad_id": 34301, "name": "COSMOS 2251 DEB", "group": "cosmos-2251-debris", "lat": -8.090954912026177, "lon": -7.46517247016377, "alt_km": 612.9869767179744, "timestamp": "2025-12-10T23:33:13.212008+00:00", "meta": {"OBJECT_NAME": "COSMOS 2251 DEB", "OBJECT_ID": "1993-036MX", "EPOCH": "2025-12-09T00:30:20.035008", "MEAN_MOTION": 14.84254528, "ECCENTRICITY": 0.00117791, "INCLINATION": 74.0056, "RA_OF_ASC_NODE": 174.0909, "ARG_OF_PERICENTER": 233.226, "MEAN_ANOMALY": 284.4717, "EPHEMERIS_TYPE": 0, "CLASSIFICATION_TYPE": "U", "NORAD_CAT_ID": 34301, "ELEMENT_SET_NO": 999, "REV_AT_EPOCH": 88345, "BSTAR": 0.0032627811, "MEAN_MOTION_DOT": 0.00027446, "MEAN_MOTION_DDOT": 0}, "tle": {"line1": "1 34301U 93036MX  25343.02106522  .00027446  00000+0  32628-2 0  9992", "line2": "2 34301  74.0056 174.0909 0011779 233.2260 284.4717 14.84254528883452"}}, "geometry": {"type": "Point", "coordinates": [-7.46517247016377, -8.090954912026177]}}, {"type": "Feature", "properties": {"norad_id": 34302, "name": "COSMOS 2251 DEB", "group": "cosmos-2251-debris", "lat": -21.48549828986618, "lon": -46.79311143681441, "alt_km": 808.6916027781617, "timestamp": "2025-12-10T23:33:13.212017+00:00", "meta": {"OBJECT_NAME": "COSMOS 2251 DEB", "OBJECT_ID": "1993-036MY", "EPOCH": "2025-12-10T09:24:23.774112", "MEAN_MOTION": 14.39316879, "ECCENTRICITY": 0.00786222, "INCLINATION": 74.178, "RA_OF_ASC_NODE": 127.8765, "ARG_OF_PERICENTER": 343.7916, "MEAN_ANOMALY": 45.9782, "EPHEMERIS_TYPE": 0, "CLASSIFICATION_TYPE": "U", "NORAD_CAT_ID": 34302, "ELEMENT_SET_NO": 999, "REV_AT_EPOCH": 87687, "BSTAR": 0.00095025958, "MEAN_MOTION_DOT": 3.035e-05, "MEAN_MOTION_DDOT": 0}, "tle": {"line1": "1 34302U 93036MY  25344.39194183  .00003035  00000+0  95026-3 0  9994", "line2": "2 34302  74.1780 127.8765 0078622 343.7916  45.9782 14.39316879876877"}}, "geometry": {"type": "Point", "coordinates": [-46.79311143681441, -21.48549828986618]}}]}